CTC2_L_00218016-03
1 10062U 25525WM  26075.70042824  .00000000  00000+0  00000-0 0  9994
2 10062  80.0000 180.0000 0000000   0.0000   0.0000 14.33516687    13
CTC2_L_00218016-04
1 10063U 26125KE  26075.70042824  .00000000  00000+0  00000-0 0  9992
2 10063  80.0000 180.0000 0000000   0.0000  90.0000 14.33516687    13
CTC2_L_00218017-01
1 10064U 25572NK  26075.70042824  .00000000  00000+0  00000-0 0  9998
2 10064  80.0000 192.0000 0000000   0.0000 192.0000 14.33516687    10
CTC2_L_00218017-02
1 10065U 23003ZT  26075.70042824  .00000000  00000+0  00000-0 0  9996
2 10065  80.0000 192.0000 0000000   0.0000 282.0000 14.33516687    11
CTC2_L_00218017-03
1 10066U 25788MO  26075.70042824  .00000000  00000+0  00000-0 0  9999
2 10066  80.0000 192.0000 0000000   0.0000  12.0000 14.33516687    13
CTC2_L_00218017-04
1 10067U 23679HL  26075.70042824  .00000000  00000+0  00000-0 0  9997
2 10067  80.0000 192.0000 0000000   0.0000 102.0000 14.33516687    14
CTC2_L_00218018-01
1 10068U 24909UJ  26075.70042824  .00000000  00000+0  00000-0 0  9995
2 10068  80.0000 204.0000 0000000   0.0000 204.0000 14.33516687    12
CTC2_L_00218018-02
1 10069U 22358KP  26075.70042824  .00000000  00000+0  00000-0 0  9992
2 10069  80.0000 204.0000 0000000   0.0000 294.0000 14.33516687    12
CTC2_L_00218018-03
1 10070U 23166UK  26075.70042824  .00000000  00000+0  00000-0 0  9992
2 10070  80.0000 204.0000 0000000   0.0000  24.0000 14.33516687    15
CTC2_L_00218018-04
1 10071U 25744GX  26075.70042824  .00000000  00000+0  00000-0 0  9997
2 10071  80.0000 204.0000 0000000   0.0000 114.0000 14.33516687    16
CTC2_L_00218019-01
1 10072U 25980TJ  26075.70042824  .00000000  00000+0  00000-0 0  9990
2 10072  80.0000 216.0000 0000000   0.0000 216.0000 14.33516687    13
CTC2_L_00218019-02
1 10073U 26336XS  26075.70042824  .00000000  00000+0  00000-0 0  9997
2 10073  80.0000 216.0000 0000000   0.0000 306.0000 14.33516687    14
CTC2_L_00218019-03
1 10074U 22961JF  26075.70042824  .00000000  00000+0  00000-0 0  9998
2 10074  80.0000 216.0000 0000000   0.0000  36.0000 14.33516687    15
CTC2_L_00218019-04
1 10075U 23287SA  26075.70042824  .00000000  00000+0  00000-0 0  9991
2 10075  80.0000 216.0000 0000000   0.0000 126.0000 14.33516687    16
CTC2_L_00218020-01
1 10076U 26724JG  26075.70042824  .00000000  00000+0  00000-0 0  9991
2 10076  80.0000 228.0000 0000000   0.0000 228.0000 14.33516687    13
CTC2_L_00218020-02
1 10077U 23069JU  26075.70042824  .00000000  00000+0  00000-0 0  9991
2 10077  80.0000 228.0000 0000000   0.0000 318.0000 14.33516687    14
CTC2_L_00218020-03
1 10078U 25524RC  26075.70042824  .00000000  00000+0  00000-0 0  9990
2 10078  80.0000 228.0000 0000000   0.0000  48.0000 14.33516687    15
CTC2_L_00218020-04
1 10079U 24524KS  26075.70042824  .00000000  00000+0  00000-0 0  9990
2 10079  80.0000 228.0000 0000000   0.0000 138.0000 14.33516687    16
CTC2_L_00218021-01
1 10080U 26324RD  26075.70042824  .00000000  00000+0  00000-0 0  9992
2 10080  80.0000 240.0000 0000000   0.0000 240.0000 14.33516687    16
CTC2_L_00218021-02
1 10081U 24535MV  26075.70042824  .00000000  00000+0  00000-0 0  9995
2 10081  80.0000 240.0000 0000000   0.0000 330.0000 14.33516687    17
CTC2_L_00218021-03
1 10082U 25730B   26075.70042824  .00000000  00000+0  00000-0 0  9994
2 10082  80.0000 240.0000 0000000   0.0000  60.0000 14.33516687    18
CTC2_L_00218021-04
1 10083U 25853OJ  26075.70042824  .00000000  00000+0  00000-0 0  9991
2 10083  80.0000 240.0000 0000000   0.0000 150.0000 14.33516687    19
CTC2_L_00218022-01
1 10084U 26475PD  26075.70042824  .00000000  00000+0  00000-0 0  9993
2 10084  80.0000 252.0000 0000000   0.0000 252.0000 14.33516687    16
CTC2_L_00218022-02
1 10085U 26312MQ  26075.70042824  .00000000  00000+0  00000-0 0  9994
2 10085  80.0000 252.0000 0000000   0.0000 342.0000 14.33516687    17
CTC2_L_00218022-03
1 10086U 22533OW  26075.70042824  .00000000  00000+0  00000-0 0  9996
2 10086  80.0000 252.0000 0000000   0.0000  72.0000 14.33516687    18
CTC2_L_00218022-04
1 10087U 24087MC  26075.70042824  .00000000  00000+0  00000-0 0  9993
2 10087  80.0000 252.0000 0000000   0.0000 162.0000 14.33516687    19
CTC2_L_00218023-01
1 10088U 25542Z   26075.70042824  .00000000  00000+0  00000-0 0  9991
2 10088  80.0000 264.0000 0000000   0.0000 264.0000 14.33516687    16
CTC2_L_00218023-02
1 10089U 26172EB  26075.70042824  .00000000  00000+0  00000-0 0  9992
2 10089  80.0000 264.0000 0000000   0.0000 354.0000 14.33516687    17
CTC2_L_00218023-03
1 10090U 25590VF  26075.70042824  .00000000  00000+0  00000-0 0  9997
2 10090  80.0000 264.0000 0000000   0.0000  84.0000 14.33516687    19
CTC2_L_00218023-04
1 10091U 23801SR  26075.70042824  .00000000  00000+0  00000-0 0  9991
2 10091  80.0000 264.0000 0000000   0.0000 174.0000 14.33516687    10
CTC2_L_00218024-01
1 10092U 26118AG  26075.70042824  .00000000  00000+0  00000-0 0  9996
2 10092  80.0000 276.0000 0000000   0.0000 276.0000 14.33516687    17
CTC2_L_00218024-02
1 10093U 23073AU  26075.70042824  .00000000  00000+0  00000-0 0  9994
2 10093  80.0000 276.0000 0000000   0.0000   6.0000 14.33516687    19
CTC2_L_00218024-03
1 10094U 24628TP  26075.70042824  .00000000  00000+0  00000-0 0  9992
2 10094  80.0000 276.0000 0000000   0.0000  96.0000 14.33516687    19
CTC2_L_00218024-04
1 10095U 26288EE  26075.70042824  .00000000  00000+0  00000-0 0  9997
2 10095  80.0000 276.0000 0000000   0.0000 186.0000 14.33516687    10
CTC2_L_00218025-01
1 10096U 25852VB  26075.70042824  .00000000  00000+0  00000-0 0  9994
2 10096  80.0000 288.0000 0000000   0.0000 288.0000 14.33516687    17
CTC2_L_00218025-02
1 10097U 26954EV  26075.70042824  .00000000  00000+0  00000-0 0  9999
2 10097  80.0000 288.0000 0000000   0.0000  18.0000 14.33516687    19
CTC2_L_00218025-03
1 10098U 24400JM  26075.70042824  .00000000  00000+0  00000-0 0  9994
2 10098  80.0000 288.0000 0000000   0.0000 108.0000 14.33516687    10
CTC2_L_00218025-04
1 10099U 24756FF  26075.70042824  .00000000  00000+0  00000-0 0  9999
2 10099  80.0000 288.0000 0000000   0.0000 198.0000 14.33516687    10
CTC2_L_00218026-01
1 10100U 26108EC  26075.70042824  .00000000  00000+0  00000-0 0  9995
2 10100  80.0000 300.0000 0000000   0.0000 300.0000 14.33516687    13
CTC2_L_00218026-02
1 10101U 23457FO  26075.70042824  .00000000  00000+0  00000-0 0  9990
2 10101  80.0000 300.0000 0000000   0.0000  30.0000 14.33516687    14
CTC2_L_00218026-03
1 10102U 22315LS  26075.70042824  .00000000  00000+0  00000-0 0  9993
2 10102  80.0000 300.0000 0000000   0.0000 120.0000 14.33516687    15
CTC2_L_00218026-04
1 10103U 22735GZ  26075.70042824  .00000000  00000+0  00000-0 0  9990
2 10103  80.0000 300.0000 0000000   0.0000 210.0000 14.33516687    16
CTC2_L_00218027-01
1 10104U 26200LX  26075.70042824  .00000000  00000+0  00000-0 0  9992
2 10104  80.0000 312.0000 0000000   0.0000 312.0000 14.33516687    13
CTC2_L_00218027-02
1 10105U 22604CZ  26075.70042824  .00000000  00000+0  00000-0 0  9997
2 10105  80.0000 312.0000 0000000   0.0000  42.0000 14.33516687    14
CTC2_L_00218027-03
1 10106U 22635WS  26075.70042824  .00000000  00000+0  00000-0 0  9992
2 10106  80.0000 312.0000 0000000   0.0000 132.0000 14.33516687    15
CTC2_L_00218027-04
1 10107U 22561QP  26075.70042824  .00000000  00000+0  00000-0 0  9991
2 10107  80.0000 312.0000 0000000   0.0000 222.0000 14.33516687    16
CTC2_L_00218028-01
1 10108U 26934GP  26075.70042824  .00000000  00000+0  00000-0 0  9990
2 10108  80.0000 324.0000 0000000   0.0000 324.0000 14.33516687    13
CTC2_L_00218028-02
1 10109U 24008VP  26075.70042824  .00000000  00000+0  00000-0 0  9991
2 10109  80.0000 324.0000 0000000   0.0000  54.0000 14.33516687    14
CTC2_L_00218028-03
1 10110U 23269GB  26075.70042824  .00000000  00000+0  00000-0 0  9991
2 10110  80.0000 324.0000 0000000   0.0000 144.0000 14.33516687    16
CTC2_L_00218028-04
1 10111U 26935ZG  26075.70042824  .00000000  00000+0  00000-0 0  9995
2 10111  80.0000 324.0000 0000000   0.0000 234.0000 14.33516687    17
CTC2_L_00218029-01
1 10112U 22007WR  26075.70042824  .00000000  00000+0  00000-0 0  9992
2 10112  80.0000 336.0000 0000000   0.0000 336.0000 14.33516687    14
CTC2_L_00218029-02
1 10113U 23441IW  26075.70042824  .00000000  00000+0  00000-0 0  9996
2 10113  80.0000 336.0000 0000000   0.0000  66.0000 14.33516687    15
CTC2_L_00218029-03
1 10114U 22767KM  26075.70042824  .00000000  00000+0  00000-0 0  9997
2 10114  80.0000 336.0000 0000000   0.0000 156.0000 14.33516687    16
CTC2_L_00218029-04
1 10115U 26756CS  26075.70042824  .00000000  00000+0  00000-0 0  9990
2 10115  80.0000 336.0000 0000000   0.0000 246.0000 14.33516687    17
CTC2_L_00218030-01
1 10116U 25014VH  26075.70042824  .00000000  00000+0  00000-0 0  9997
2 10116  80.0000 348.0000 0000000   0.0000 348.0000 14.33516687    14
CTC2_L_00218030-02
1 10117U 23359IA  26075.70042824  .00000000  00000+0  00000-0 0  9998
2 10117  80.0000 348.0000 0000000   0.0000  78.0000 14.33516687    15
CTC2_L_00218030-03
1 10118U 23299VT  26075.70042824  .00000000  00000+0  00000-0 0  9992
2 10118  80.0000 348.0000 0000000   0.0000 168.0000 14.33516687    16
CTC2_L_00218030-04
1 10119U 26412EV  26075.70042824  .00000000  00000+0  00000-0 0  9993
2 10119  80.0000 348.0000 0000000   0.0000 258.0000 14.33516687    17
